QIANFAN-49              
1 62250U 24232P   25343.50734764  .00000155  00000+0  22153-3 0  9997
2 62250  89.0030  41.5621 0013974 196.5210 163.5488 13.50978231 67405
QIANFAN-50              
1 62251U 24232Q   25343.45795398  .00000171  00000+0  24591-3 0  9998
2 62251  89.0036  41.5751 0015575 198.8725 161.1851 13.50979727 67422
QIANFAN-51              
1 62252U 24232R   25343.51558148  .00000157  00000+0  22538-3 0  9999
2 62252  89.0030  41.5634 0012951 201.0861 158.9758 13.50977861 67427
QIANFAN-52              
1 62253U 24232S   25343.47031731  .00000144  00000+0  20455-3 0  9991
2 62253  89.0026  41.4417 0015198 194.5220 165.5497 13.50976009 67508
QIANFAN-53              
1 62254U 24232T   25343.44973679  .00000167  00000+0  24033-3 0  9996
2 62254  89.0033  41.5479 0014053 195.0968 164.9766 13.50978352 67460
QIANFAN-54              
1 62255U 24232U   25343.49090968  .00000165  00000+0  23739-3 0  9993
2 62255  89.0024  41.2225 0001380 178.7670 181.3484 13.50978543 98976
QIANFAN-55              
1 62785U 25016A   25343.44296534  .00000210  00000+0  30633-3 0  9996
2 62785  88.9777 103.5496 0016885   3.4298 356.6966 13.50986238 46745
QIANFAN-56              
1 62786U 25016B   25343.45935618  .00000199  00000+0  29028-3 0  9993
2 62786  88.9751 103.3852 0015607   6.3145 353.8200 13.50977404 46796
